[{"OBJECT_NAME":"ONEWEB-0325","OBJECT_ID":"2021-083J","EPOCH":"2026-03-09T19:36:08.115840","MEAN_MOTION":13.1868673,"ECCENTRICITY":0.00017481,"INCLINATION":87.9242,"RA_OF_ASC_NODE":355.2005,"ARG_OF_PERICENTER":80.0226,"MEAN_ANOMALY":280.1103,"EPHEMERIS_TYPE":0,"CLASSIFICATION_TYPE":"U","NORAD_CAT_ID":49194,"ELEMENT_SET_NO":999,"REV_AT_EPOCH":21691,"BSTAR":0.00017746041,"MEAN_MOTION_DOT":8.3e-7,"MEAN_MOTION_DDOT":0},{"OBJECT_NAME":"SSU 1","OBJECT_ID":"1976-038C","EPOCH":"2026-03-09T16:01:30.649440","MEAN_MOTION":13.83068183,"ECCENTRICITY":0.03933769,"INCLINATION":63.3609,"RA_OF_ASC_NODE":176.4614,"ARG_OF_PERICENTER":178.6058,"MEAN_ANOMALY":181.6188,"EPHEMERIS_TYPE":0,"CLASSIFICATION_TYPE":"U","NORAD_CAT_ID":8835,"ELEMENT_SET_NO":999,"REV_AT_EPOCH":34505,"BSTAR":0.00023819777,"MEAN_MOTION_DOT":3.67e-6,"MEAN_MOTION_DDOT":0}]
